<?xml version="1.0" encoding="UTF-8"?>
<ndm xmlns:xsi="http://www.w3.org/2001/XMLSchema-instance" xsi:noNamespaceSchemaLocation="https://sanaregistry.org/r/ndmxml_unqualified/ndmxml-2.0.0-master-2.0.xsd">
<omm id="CCSDS_OMM_VERS" version="2.0">
<header><CREATION_DATE/><ORIGINATOR/></header><body><segment><metadata><OBJECT_NAME>ONEWEB-0665</OBJECT_NAME><OBJECT_ID>2023-029AF</OBJECT_ID><CENTER_NAME>EARTH</CENTER_NAME><REF_FRAME>TEME</REF_FRAME><TIME_SYSTEM>UTC</TIME_SYSTEM><MEAN_ELEMENT_THEORY>SGP4</MEAN_ELEMENT_THEORY></metadata><data><meanElements><EPOCH>2025-08-26T13:58:51.608064</EPOCH><MEAN_MOTION>13.14502823</MEAN_MOTION><ECCENTRICITY>.00017821</ECCENTRICITY><INCLINATION>87.9097</INCLINATION><RA_OF_ASC_NODE>348.3708</RA_OF_ASC_NODE><ARG_OF_PERICENTER>91.5483</ARG_OF_PERICENTER><MEAN_ANOMALY>268.5851</MEAN_ANOMALY></meanElements><tleParameters><EPHEMERIS_TYPE>0</EPHEMERIS_TYPE><CLASSIFICATION_TYPE>U</CLASSIFICATION_TYPE><NORAD_CAT_ID>55825</NORAD_CAT_ID><ELEMENT_SET_NO>999</ELEMENT_SET_NO><REV_AT_EPOCH>12070</REV_AT_EPOCH><BSTAR>.26570406E-3</BSTAR><MEAN_MOTION_DOT>.111E-5</MEAN_MOTION_DOT><MEAN_MOTION_DDOT>0</MEAN_MOTION_DDOT></tleParameters></data></segment></body></omm>
<omm id="CCSDS_OMM_VERS" version="2.0">
<header><CREATION_DATE/><ORIGINATOR/></header><body><segment><metadata><OBJECT_NAME>ONEWEB-0666</OBJECT_NAME><OBJECT_ID>2023-029AG</OBJECT_ID><CENTER_NAME>EARTH</CENTER_NAME><REF_FRAME>TEME</REF_FRAME><TIME_SYSTEM>UTC</TIME_SYSTEM><MEAN_ELEMENT_THEORY>SGP4</MEAN_ELEMENT_THEORY></metadata><data><meanElements><EPOCH>2025-08-26T11:47:21.758784</EPOCH><MEAN_MOTION>13.20770653</MEAN_MOTION><ECCENTRICITY>.00020727</ECCENTRICITY><INCLINATION>87.9303</INCLINATION><RA_OF_ASC_NODE>333.2235</RA_OF_ASC_NODE><ARG_OF_PERICENTER>121.1766</ARG_OF_PERICENTER><MEAN_ANOMALY>238.9571</MEAN_ANOMALY></meanElements><tleParameters><EPHEMERIS_TYPE>0</EPHEMERIS_TYPE><CLASSIFICATION_TYPE>U</CLASSIFICATION_TYPE><NORAD_CAT_ID>55826</NORAD_CAT_ID><ELEMENT_SET_NO>999</ELEMENT_SET_NO><REV_AT_EPOCH>12225</REV_AT_EPOCH><BSTAR>-.10264933E-3</BSTAR><MEAN_MOTION_DOT>-.29E-6</MEAN_MOTION_DOT><MEAN_MOTION_DDOT>0</MEAN_MOTION_DDOT></tleParameters></data></segment></body></omm>
<omm id="CCSDS_OMM_VERS" version="2.0">
<header><CREATION_DATE/><ORIGINATOR/></header><body><segment><metadata><OBJECT_NAME>ONEWEB-0667</OBJECT_NAME><OBJECT_ID>2023-029AH</OBJECT_ID><CENTER_NAME>EARTH</CENTER_NAME><REF_FRAME>TEME</REF_FRAME><TIME_SYSTEM>UTC</TIME_SYSTEM><MEAN_ELEMENT_THEORY>SGP4</MEAN_ELEMENT_THEORY></metadata><data><meanElements><EPOCH>2025-08-26T13:27:21.390336</EPOCH><MEAN_MOTION>13.20774034</MEAN_MOTION><ECCENTRICITY>.00019104</ECCENTRICITY><INCLINATION>87.9299</INCLINATION><RA_OF_ASC_NODE>333.1376</RA_OF_ASC_NODE><ARG_OF_PERICENTER>93.0925</ARG_OF_PERICENTER><MEAN_ANOMALY>267.0427</MEAN_ANOMALY></meanElements><tleParameters><EPHEMERIS_TYPE>0</EPHEMERIS_TYPE><CLASSIFICATION_TYPE>U</CLASSIFICATION_TYPE><NORAD_CAT_ID>55827</NORAD_CAT_ID><ELEMENT_SET_NO>999</ELEMENT_SET_NO><REV_AT_EPOCH>12225</REV_AT_EPOCH><BSTAR>.88602299E-4</BSTAR><MEAN_MOTION_DOT>.49E-6</MEAN_MOTION_DOT><MEAN_MOTION_DDOT>0</MEAN_MOTION_DDOT></tleParameters></data></segment></body></omm>
<omm id="CCSDS_OMM_VERS" version="2.0">
<header><CREATION_DATE/><ORIGINATOR/></header><body><segment><metadata><OBJECT_NAME>ONEWEB-0669</OBJECT_NAME><OBJECT_ID>2023-029AJ</OBJECT_ID><CENTER_NAME>EARTH</CENTER_NAME><REF_FRAME>TEME</REF_FRAME><TIME_SYSTEM>UTC</TIME_SYSTEM><MEAN_ELEMENT_THEORY>SGP4</MEAN_ELEMENT_THEORY></metadata><data><meanElements><EPOCH>2025-08-26T13:20:33.500256</EPOCH><MEAN_MOTION>13.20772550</MEAN_MOTION><ECCENTRICITY>.00026039</ECCENTRICITY><INCLINATION>87.9304</INCLINATION><RA_OF_ASC_NODE>333.1772</RA_OF_ASC_NODE><ARG_OF_PERICENTER>104.2177</ARG_OF_PERICENTER><MEAN_ANOMALY>255.9246</MEAN_ANOMALY></meanElements><tleParameters><EPHEMERIS_TYPE>0</EPHEMERIS_TYPE><CLASSIFICATION_TYPE>U</CLASSIFICATION_TYPE><NORAD_CAT_ID>55828</NORAD_CAT_ID><ELEMENT_SET_NO>999</ELEMENT_SET_NO><REV_AT_EPOCH>12225</REV_AT_EPOCH><BSTAR>-.99829562E-4</BSTAR><MEAN_MOTION_DOT>-.28E-6</MEAN_MOTION_DOT><MEAN_MOTION_DDOT>0</MEAN_MOTION_DDOT></tleParameters></data></segment></body></omm>
<omm id="CCSDS_OMM_VERS" version="2.0">
<header><CREATION_DATE/><ORIGINATOR/></header><body><segment><metadata><OBJECT_NAME>ONEWEB-0670</OBJECT_NAME><OBJECT_ID>2023-029AK</OBJECT_ID><CENTER_NAME>EARTH</CENTER_NAME><REF_FRAME>TEME</REF_FRAME><TIME_SYSTEM>UTC</TIME_SYSTEM><MEAN_ELEMENT_THEORY>SGP4</MEAN_ELEMENT_THEORY></metadata><data><meanElements><EPOCH>2025-08-26T13:26:53.662848</EPOCH><MEAN_MOTION>13.14501970</MEAN_MOTION><ECCENTRICITY>.00020952</ECCENTRICITY><INCLINATION>87.9099</INCLINATION><RA_OF_ASC_NODE>348.3954</RA_OF_ASC_NODE><ARG_OF_PERICENTER>90.2352</ARG_OF_PERICENTER><MEAN_ANOMALY>269.9018</MEAN_ANOMALY></meanElements><tleParameters><EPHEMERIS_TYPE>0</EPHEMERIS_TYPE><CLASSIFICATION_TYPE>U</CLASSIFICATION_TYPE><NORAD_CAT_ID>55829</NORAD_CAT_ID><ELEMENT_SET_NO>999</ELEMENT_SET_NO><REV_AT_EPOCH>12072</REV_AT_EPOCH><BSTAR>-.2950242E-3</BSTAR><MEAN_MOTION_DOT>-.97E-6</MEAN_MOTION_DOT><MEAN_MOTION_DDOT>0</MEAN_MOTION_DDOT></tleParameters></data></segment></body></omm>
<omm id="CCSDS_OMM_VERS" version="2.0">
<header><CREATION_DATE/><ORIGINATOR/></header><body><segment><metadata><OBJECT_NAME>ONEWEB-0671</OBJECT_NAME><OBJECT_ID>2023-029AL</OBJECT_ID><CENTER_NAME>EARTH</CENTER_NAME><REF_FRAME>TEME</REF_FRAME><TIME_SYSTEM>UTC</TIME_SYSTEM><MEAN_ELEMENT_THEORY>SGP4</MEAN_ELEMENT_THEORY></metadata><data><meanElements><EPOCH>2025-08-26T14:11:09.415680</EPOCH><MEAN_MOTION>13.19726733</MEAN_MOTION><ECCENTRICITY>.00018714</ECCENTRICITY><INCLINATION>87.9270</INCLINATION><RA_OF_ASC_NODE>3.5526</RA_OF_ASC_NODE><ARG_OF_PERICENTER>92.4467</ARG_OF_PERICENTER><MEAN_ANOMALY>267.6880</MEAN_ANOMALY></meanElements><tleParameters><EPHEMERIS_TYPE>0</EPHEMERIS_TYPE><CLASSIFICATION_TYPE>U</CLASSIFICATION_TYPE><NORAD_CAT_ID>55830</NORAD_CAT_ID><ELEMENT_SET_NO>999</ELEMENT_SET_NO><REV_AT_EPOCH>12004</REV_AT_EPOCH><BSTAR>.8111047E-4</BSTAR><MEAN_MOTION_DOT>.45E-6</MEAN_MOTION_DOT><MEAN_MOTION_DDOT>0</MEAN_MOTION_DDOT></tleParameters></data></segment></body></omm>
<omm id="CCSDS_OMM_VERS" version="2.0">
<header><CREATION_DATE/><ORIGINATOR/></header><body><segment><metadata><OBJECT_NAME>ONEWEB-0672</OBJECT_NAME><OBJECT_ID>2023-029AM</OBJECT_ID><CENTER_NAME>EARTH</CENTER_NAME><REF_FRAME>TEME</REF_FRAME><TIME_SYSTEM>UTC</TIME_SYSTEM><MEAN_ELEMENT_THEORY>SGP4</MEAN_ELEMENT_THEORY></metadata><data><meanElements><EPOCH>2025-08-26T13:13:44.524128</EPOCH><MEAN_MOTION>13.20772341</MEAN_MOTION><ECCENTRICITY>.0002111</ECCENTRICITY><INCLINATION>87.9297</INCLINATION><RA_OF_ASC_NODE>333.1626</RA_OF_ASC_NODE><ARG_OF_PERICENTER>107.5532</ARG_OF_PERICENTER><MEAN_ANOMALY>252.5832</MEAN_ANOMALY></meanElements><tleParameters><EPHEMERIS_TYPE>0</EPHEMERIS_TYPE><CLASSIFICATION_TYPE>U</CLASSIFICATION_TYPE><NORAD_CAT_ID>55831</NORAD_CAT_ID><ELEMENT_SET_NO>999</ELEMENT_SET_NO><REV_AT_EPOCH>12225</REV_AT_EPOCH><BSTAR>.22274129E-4</BSTAR><MEAN_MOTION_DOT>.22E-6</MEAN_MOTION_DOT><MEAN_MOTION_DDOT>0</MEAN_MOTION_DDOT></tleParameters></data></segment></body></omm>
<omm id="CCSDS_OMM_VERS" version="2.0">
<header><CREATION_DATE/><ORIGINATOR/></header><body><segment><metadata><OBJECT_NAME>ONEWEB-0673</OBJECT_NAME><OBJECT_ID>2023-029AN</OBJECT_ID><CENTER_NAME>EARTH</CENTER_NAME><REF_FRAME>TEME</REF_FRAME><TIME_SYSTEM>UTC</TIME_SYSTEM><MEAN_ELEMENT_THEORY>SGP4</MEAN_ELEMENT_THEORY></metadata><data><meanElements><EPOCH>2025-08-26T15:26:11.456160</EPOCH><MEAN_MOTION>13.19727628</MEAN_MOTION><ECCENTRICITY>.00016223</ECCENTRICITY><INCLINATION>87.9280</INCLINATION><RA_OF_ASC_NODE>3.5073</RA_OF_ASC_NODE><ARG_OF_PERICENTER>94.7584</ARG_OF_PERICENTER><MEAN_ANOMALY>265.3734</MEAN_ANOMALY></meanElements><tleParameters><EPHEMERIS_TYPE>0</EPHEMERIS_TYPE><CLASSIFICATION_TYPE>U</CLASSIFICATION_TYPE><NORAD_CAT_ID>55832</NORAD_CAT_ID><ELEMENT_SET_NO>999</ELEMENT_SET_NO><REV_AT_EPOCH>12005</REV_AT_EPOCH><BSTAR>.16055523E-3</BSTAR><MEAN_MOTION_DOT>.77E-6</MEAN_MOTION_DOT><MEAN_MOTION_DDOT>0</MEAN_MOTION_DDOT></tleParameters></data></segment></body></omm>

</ndm>
