ONEWEB-0665             
1 55825U 23029AF  25238.58254176  .00000111  00000+0  26570-3 0  9994
2 55825  87.9097 348.3708 0001782  91.5483 268.5851 13.14502823120702
ONEWEB-0666             
1 55826U 23029AG  25238.49122406 -.00000029  00000+0 -10265-3 0  9999
2 55826  87.9303 333.2235 0002072 121.1766 238.9571 13.20770653122255
ONEWEB-0667             
1 55827U 23029AH  25238.56066424  .00000049  00000+0  88602-4 0  9996
2 55827  87.9299 333.1376 0001910  93.0925 267.0427 13.20774034122259
ONEWEB-0669             
1 55828U 23029AJ  25238.55594329 -.00000028  00000+0 -99830-4 0  9990
2 55828  87.9304 333.1772 0002603 104.2177 255.9246 13.20772550122257
ONEWEB-0670             
1 55829U 23029AK  25238.56034332 -.00000097  00000+0 -29502-3 0  9999
2 55829  87.9099 348.3954 0002095  90.2352 269.9018 13.14501970120724
ONEWEB-0671             
1 55830U 23029AL  25238.59108120  .00000045  00000+0  81110-4 0  9996
2 55830  87.9270   3.5526 0001871  92.4467 267.6880 13.19726733120042
ONEWEB-0672             
1 55831U 23029AM  25238.55120977  .00000022  00000+0  22274-4 0  9998
2 55831  87.9297 333.1626 0002111 107.5532 252.5832 13.20772341122257
ONEWEB-0673             
1 55832U 23029AN  25238.64318815  .00000077  00000+0  16056-3 0  9999
2 55832  87.9280   3.5073 0001622  94.7584 265.3734 13.19727628120059
